GPS BIIR-08             
1 27663U 03005A   26113.27533398 -.00000021  00000+0  00000+0 0  9997
2 27663  54.8935 217.1501 0148218  52.9549 317.8687  2.00563452170213
GPS BIIR-11             
1 28190U 04009A   26111.56326882 -.00000008  00000+0  00000+0 0  9991
2 28190  54.8779 277.9734 0113423 170.6430 198.5020  2.00556415161816
GPS BIIR-13             
1 28474U 04045A   26111.72461021 -.00000065  00000+0  00000+0 0  9992
2 28474  55.1682 327.1704 0170118 314.8285 236.1355  2.00553145157291
GPS BIIR-14M            
1 28874U 05038A   26111.27058362 -.00000006  00000+0  00000+0 0  9994
2 28874  54.9260 275.4728 0127825 295.8207 248.1907  2.00569522150693
METEOSAT-9 (MSG-2)      
1 28912U 05049B   26112.94596515  .00000116  00000+0  00000+0 0  9992
2 28912   9.2395  54.6992 0000315 337.9323 204.5419  1.00272795  6448
GPS BIIR-16M            
1 29601U 06052A   26111.57844431  .00000005  00000+0  00000+0 0  9991
2 29601  54.9449 216.2494 0086561  90.2122 270.7999  2.00554788142273
GPS BIIR-17M            
1 32260U 07047A   26111.88353860  .00000010  00000+0  00000+0 0  9992
2 32260  54.0548  82.3849 0164638  86.4300 275.4289  2.00558018135683
GPS BIIR-18M            
1 32384U 07062A   26111.94998582 -.00000007  00000+0  00000+0 0  9996
2 32384  55.0795 276.4116 0034429 162.1544  12.9167  2.00556469134387
GOES 14                 
1 35491U 09033A   26113.24833795 -.00000043  00000+0  00000+0 0  9997
2 35491   1.5497  83.6656 0001624 305.4033  84.2019  1.00115643  6040
GOES 15                 
1 36411U 10008A   26112.99762469  .00000012  00000+0  00000+0 0  9999
2 36411   1.1320  83.8508 0003681  24.1452 165.4533  1.00271826 59088
GSAT0101 (GALILEO-PFM)  
1 37846U 11060A   26112.12289570 -.00000083  00000+0  00000+0 0  9992
2 37846  57.0108 343.2826 0003768  24.1145 335.9456  1.70475574 90161
GSAT0102 (GALILEO-FM2)  
1 37847U 11060B   26112.30979508 -.00000084  00000+0  00000+0 0  9991
2 37847  57.0122 343.2780 0004705   7.1033 153.2259  1.70475846 90171
LUCH 5A                 
1 37951U 11074B   26113.19032706 -.00000058  00000+0  00000+0 0  9991
2 37951   8.6168  74.5992 0002683 297.2596  74.8132  1.00272198 52508
METEOSAT-10 (MSG-3)     
1 38552U 12035B   26113.20044870 -.00000014  00000+0  00000+0 0  9996
2 38552   4.5436  61.2474 0002229 292.0232 290.3883  1.00275793 50301
SARSAT 13 (METOP-B)     
1 38771U 12049A   26113.21383480  .00000068  00000+0  50768-4 0  9997
2 38771  98.6554 165.7970 0003302 130.5218 229.6248 14.21432175705452
GPS BIIF-3              
1 38833U 12053A   26111.97819863  .00000037  00000+0  00000+0 0  9996
2 38833  53.5738 145.9021 0177871  65.1158 296.7851  2.00566507 98317
GSAT0103 (GALILEO-FM3)  
1 38857U 12055A   26109.23035717  .00000051  00000+0  00000+0 0  9994
2 38857  55.7701 103.1616 0005947 294.3040  65.6305  1.70473325 84002
GPS BIIF-4              
1 39166U 13023A   26111.34516973 -.00000004  00000+0  00000+0 0  9996
2 39166  54.5503 271.2875 0141991  50.6095 310.6092  2.00563715 94745
INSAT-3D                
1 39216U 13038B   26113.17891840 -.00000350  00000+0  00000+0 0  9994
2 39216   1.7853  83.1933 0001529 271.7557  50.2013  1.00273299 46526
GPS BIIF-5              
1 39533U 14008A   26111.84431666  .00000034  00000+0  00000+0 0  9990
2 39533  53.6437 151.6181 0083709 229.9974 129.3301  2.00556118 88558
LUCH 5V                 
1 39727U 14023A   26113.30420118 -.00000279  00000+0  00000+0 0  9997
2 39727   4.9994  70.2760 0002071 333.6397  11.7034  1.00272858 43805
GPS BIIF-6              
1 39741U 14026A   26112.12026296 -.00000072  00000+0  00000+0 0  9995
2 39741  56.5238 333.7007 0039017 326.5761  33.2155  2.00564997 87419
GPS BIIF-7              
1 40105U 14045A   26112.21057195  .00000027  00000+0  00000+0 0  9993
2 40105  55.3172  90.6935 0031596 119.2545 241.0464  2.00554610 84958
GSAT0201 (GALILEO 5)    
1 40128U 14050A   26112.90139213 -.00000029  00000+0  00000+0 0  9995
2 40128  48.9369 275.6992 1665725 177.2294 183.8264  1.85519902 77297
GSAT0202 (GALILEO 6)    
1 40129U 14050B   26112.61814241 -.00000026  00000+0  00000+0 0  9992
2 40129  48.9541 274.7956 1666851 177.9520 182.8300  1.85520499 79453
GPS BIIF-8              
1 40294U 14068A   26113.08204536 -.00000078  00000+0  00000+0 0  9993
2 40294  56.9520  33.0781 0065138  68.7744 291.9270  2.00572719 84105
GLONASS-K 2             
1 40315U 14075A   26110.58183731  .00000031  00000+0  00000+0 0  9998
2 40315  63.6142 192.3654 0021745 209.4107 150.5283  2.13101394 88621
GPS BIIF-9              
1 40534U 15013A   26113.21627339 -.00000020  00000+0  00000+0 0  9993
2 40534  53.1749 206.4511 0108865  39.9865 320.8421  2.00554555 80722
GSAT0203 (GALILEO 7)    
1 40544U 15017A   26111.90090206 -.00000083  00000+0  00000+0 0  9998
2 40544  56.8042 343.1309 0002546 315.4442  44.5780  1.70475713 68240
GSAT0204 (GALILEO 8)    
1 40545U 15017B   26111.56996756 -.00000081  00000+0  00000+0 0  9994
2 40545  56.8107 343.1583 0002165 291.9827  68.0380  1.70475494 31286
GPS BIIF-10             
1 40730U 15033A   26112.87724529 -.00000011  00000+0  00000+0 0  9993
2 40730  54.0276 269.3652 0115005  29.8576 330.7648  2.00558986 78887
METEOSAT-11 (MSG-4)     
1 40732U 15034A   26113.20044870  .00000053  00000+0  00000+0 0  9993
2 40732   3.0643  71.3964 0001630 344.4339 237.2619  1.00263193  6667
GSAT0205 (GALILEO 9)    
1 40889U 15045A   26110.85404129  .00000000  00000+0  00000+0 0  9995
2 40889  54.9634 223.3030 0004870 267.7924  92.1531  1.67410744 66008
GSAT0206 (GALILEO 10)   
1 40890U 15045B   26109.79887237  .00000004  00000+0  00000+0 0  9997
2 40890  54.9633 223.2157 0002311  40.7156 319.2995  1.70473867 66042
GPS BIIF-11             
1 41019U 15062A   26112.93517689 -.00000077  00000+0  00000+0 0  9992
2 41019  56.9246  32.9401 0111234 231.5322 127.4749  2.00566892 76722
ELEKTRO-L 2             
1 41105U 15074A   26112.51329046 -.00000125  00000+0  00000+0 0  9997
2 41105   6.5560  71.1893 0002339 252.5357  57.1367  1.00270530 37940
GSAT0209 (GALILEO 12)   
1 41174U 15079A   26112.31317242  .00000042  00000+0  00000+0 0  9998
2 41174  55.7938 102.7927 0005619 327.6095  32.3452  1.70474027 63827
GSAT0208 (GALILEO 11)   
1 41175U 15079B   26110.18709886  .00000045  00000+0  00000+0 0  9994
2 41175  55.7899 102.8482 0005050 329.3819  30.5799  1.70473910 64200
GPS BIIF-12             
1 41328U 16007A   26113.02279139  .00000032  00000+0  00000+0 0  9991
2 41328  55.4904  91.6451 0096102 247.0431 111.9276  2.00554257 74730
GSAT0211 (GALILEO 14)   
1 41549U 16030A   26112.07095613 -.00000008  00000+0  00000+0 0  9993
2 41549  55.1129 223.2375 0002543   1.6948 358.3089  1.70474036 61717
GSAT0210 (GALILEO 13)   
1 41550U 16030B   26111.15506160 -.00000001  00000+0  00000+0 0  9990
2 41550  55.1125 223.2608 0002735 224.3398 135.6408  1.70473979 61693
INSAT-3DR               
1 41752U 16054A   26113.19280902 -.00000089  00000+0  00000+0 0  9995
2 41752   0.1052  85.8935 0011884 195.3266  73.4267  1.00270710 35264
GSAT0207 (GALILEO 15)   
1 41859U 16069A   26110.26008792  .00000044  00000+0  00000+0 0  9999
2 41859  55.4625 102.6872 0005904 316.0602  43.8837  1.70473958 58413
GSAT0212 (GALILEO 16)   
1 41860U 16069B   26111.28674698  .00000041  00000+0  00000+0 0  9995
2 41860  55.4605 102.6541 0004614 339.9086  20.0619  1.70474149 58680
GSAT0213 (GALILEO 17)   
1 41861U 16069C   26111.65410243  .00000041  00000+0  00000+0 0  9991
2 41861  55.4625 102.6517 0005857 301.9100  58.0216  1.70474475 58554
GSAT0214 (GALILEO 18)   
1 41862U 16069D   26112.97338248  .00000042  00000+0  00000+0 0  9993
2 41862  55.4629 102.6080 0004898 306.7085  53.2368  1.70474256 58702
GOES 16                 
1 41866U 16071A   26113.15808644 -.00000102  00000+0  00000+0 0  9991
2 41866   0.2028  85.1787 0001651 242.4920 195.7426  1.00270807 34557
GSAT-17                 
1 42815U 17040B   26113.17614338 -.00000269  00000+0  00000+0 0  9994
2 42815   0.1109  80.9111 0003781 229.9916  57.2301  1.00270576 32236
GSAT0215 (GALILEO 19)   
1 43055U 17079A   26110.53058016  .00000002  00000+0  00000+0 0  9999
2 43055  55.0921 223.0924 0001303 264.2727  95.7137  1.70474648 52000
GSAT0216 (GALILEO 20)   
1 43056U 17079B   26112.58150778 -.00000013  00000+0  00000+0 0  9998
2 43056  55.0901 223.0360 0002685 285.3813  74.5916  1.70474788 52057
GSAT0217 (GALILEO 21)   
1 43057U 17079C   26110.45596079  .00000003  00000+0  00000+0 0  9999
2 43057  55.0900 223.0923 0002164 310.1804  49.8016  1.70474665 52006
GSAT0218 (GALILEO 22)   
1 43058U 17079D   26111.84918258 -.00000006  00000+0  00000+0 0  9995
2 43058  55.0895 223.0518 0003219 275.9847  83.9821  1.70474594 52056
GOES 17                 
1 43226U 18022A   26112.91086663 -.00000193  00000+0  00000+0 0  9993
2 43226   0.7971  86.4474 0000727 257.7193 105.2173  1.00271549 29870
GSAT0221 (GALILEO 25)   
1 43564U 18060A   26112.92611152 -.00000085  00000+0  00000+0 0  9998
2 43564  57.1858 343.2738 0003754 325.6558  34.3608  1.70475606 48227
GSAT0222 (GALILEO 26)   
1 43565U 18060B   26111.38590539 -.00000080  00000+0  00000+0 0  9998
2 43565  57.1907 343.3186 0002541 291.1885  68.8291  1.70475329 48248
GSAT0219 (GALILEO 23)   
1 43566U 18060C   26110.43371844 -.00000076  00000+0  00000+0 0  9995
2 43566  57.1895 343.3461 0003569 334.1585  25.8719  1.70475490 48200
GSAT0220 (GALILEO 24)   
1 43567U 18060D   26111.82799347 -.00000082  00000+0  00000+0 0  9999
2 43567  57.1850 343.3074 0003374  38.3401 321.7274  1.70475290 48219
BEIDOU-3 M13            
1 43622U 18072A   26112.15545860 -.00000018  00000+0  00000+0 0  9999
2 43622  56.5778  64.5077 0008915 317.4277  42.4767  1.86231087 51619
BEIDOU-3 M14            
1 43623U 18072B   26113.09482041 -.00000018  00000+0  00000+0 0  9995
2 43623  56.5807  64.4709 0006923 341.1760  18.7735  1.86231112 51623
